NORAD_CAT_ID,OBJECT_NAME,OBJECT_TYPE,EPOCH,MEAN_MOTION,ECCENTRICITY,INCLINATION,RA_OF_ASC_NODE,ARG_OF_PERICENTER,MEAN_ANOMALY,BSTAR,MEAN_MOTION_DOT,MEAN_MOTION_DDOT,TLE_LINE0,TLE_LINE1,TLE_LINE2,SEMIMAJOR_AXIS,PERIOD,APOGEE,PERIGEE,DECAYED
54072.0,STARLINK-5144,PAYLOAD,2023-10-07 11:45:53,15.08852811,0.0001454,53.218,353.1851,90.3415,269.7743,0.00074504,0.00011593,0.0,0 STARLINK-5144,1 54072U 22136X   23280.49019743  .00011593  00000-0  74504-3 0  9996,2 54072  53.2180 353.1851 0001454  90.3415 269.7743 15.08852811 53365,6917.841,95.437,540.712,538.7,0.0
54072.0,STARLINK-5144,PAYLOAD,2023-10-07 14:56:39,15.08863173,0.0001348,53.2174,352.5889,85.7929,274.3217,0.0011484,0.00018048,0.0,0 STARLINK-5144,1 54072U 22136X   23280.62267579  .00018048  00000-0  11484-2 0  9992,2 54072  53.2174 352.5889 0001348  85.7929 274.3217 15.08863173 53868,6917.81,95.436,540.607,538.742,0.0
54072.0,STARLINK-5144,PAYLOAD,2023-10-08 10:01:17,15.0884643,0.0001624,53.2183,349.0213,101.7763,258.3411,0.00044773,6.846e-05,0.0,0 STARLINK-5144,1 54072U 22136X   23281.41755902  .00006846  00000-0  44773-3 0  9993,2 54072  53.2183 349.0213 0001624 101.7763 258.3411 15.08846430 53980,6917.861,95.437,540.849,538.602,0.0
54072.0,STARLINK-5144,PAYLOAD,2023-10-08 11:36:40,15.08852348,0.0001373,53.2177,348.724,95.7314,264.3835,0.00072424,0.00011261,0.0,0 STARLINK-5144,1 54072U 22136X   23281.48379806  .00011261  00000-0  72424-3 0  9996,2 54072  53.2177 348.7240 0001373  95.7314 264.3835 15.08852348 53515,6917.843,95.437,540.657,538.758,0.0
54072.0,STARLINK-5144,PAYLOAD,2023-10-08 21:08:58,15.08856383,0.000116,53.2176,346.94,89.1711,270.9414,0.00093342,0.00014605,0.0,0 STARLINK-5144,1 54072U 22136X   23281.88123678  .00014605  00000-0  93342-3 0  9991,2 54072  53.2176 346.9400 0001160  89.1711 270.9414 15.08856383 53579,6917.83,95.437,540.498,538.893,0.0
54072.0,STARLINK-5144,PAYLOAD,2023-10-09 08:16:41,15.08842536,0.0001849,53.2187,344.8589,94.2142,265.9061,0.00013042,1.788e-05,0.0,0 STARLINK-5144,1 54072U 22136X   23282.34492086  .00001788  00000-0  13042-3 0  9992,2 54072  53.2187 344.8589 0001849  94.2142 265.9061 15.08842536 54124,6917.873,95.437,541.017,538.459,0.0
54072.0,STARLINK-5144,PAYLOAD,2023-10-09 11:27:27,15.08844941,0.0001519,53.2183,344.2651,87.5964,272.5202,0.00031697,4.761e-05,0.0,0 STARLINK-5144,1 54072U 22136X   23282.47739977  .00004761  00000-0  31697-3 0  9999,2 54072  53.2183 344.2651 0001519  87.5964 272.5202 15.08844941 53666,6917.865,95.437,540.781,538.679,0.0
54072.0,STARLINK-5144,PAYLOAD,2023-10-10 11:18:14,15.0885457,0.0001584,53.2175,339.8041,80.9845,279.1326,0.00041435,6.315e-05,0.0,0 STARLINK-5144,1 54072U 22136X   23283.47099731  .00006315  00000-0  41435-3 0  9995,2 54072  53.2175 339.8041 0001584  80.9845 279.1326 15.08854570 54296,6917.836,95.437,540.797,538.605,0.0
54072.0,STARLINK-5144,PAYLOAD,2023-10-11 03:12:05,15.08843436,0.0001787,53.2177,336.8306,82.8922,277.2273,0.00017469,2.493e-05,0.0,0 STARLINK-5144,1 54072U 22136X   23284.13340088  .00002493  00000-0  17469-3 0  9996,2 54072  53.2177 336.8306 0001787  82.8922 277.2273 15.08843436 54391,6917.87,95.437,540.971,538.499,0.0
54072.0,STARLINK-5144,PAYLOAD,2023-10-11 12:44:24,15.08836942,0.0001735,53.2179,335.0436,79.7707,280.3481,0.00011769,1.585e-05,0.0,0 STARLINK-5144,1 54072U 22136X   23284.53084435  .00001585  00000-0  11769-3 0  9999,2 54072  53.2179 335.0436 0001735  79.7707 280.3481 15.08836942 54454,6917.89,95.438,540.955,538.554,0.0
54072.0,STARLINK-5144,PAYLOAD,2023-10-12 10:59:48,15.08850425,0.0001657,53.2166,330.8823,77.8328,282.285,0.0003285,4.945e-05,0.0,0 STARLINK-5144,1 54072U 22136X   23285.45820245  .00004945  00000-0  32850-3 0  9995,2 54072  53.2166 330.8823 0001657  77.8328 282.2850 15.08850425 54110,6917.849,95.437,540.86,538.567,0.0
54072.0,STARLINK-5144,PAYLOAD,2023-10-13 09:15:12,15.08843428,0.0001631,53.2172,326.7187,85.6761,274.4417,0.00022866,3.353e-05,0.0,0 STARLINK-5144,1 54072U 22136X   23286.38556630  .00003353  00000-0  22866-3 0  9990,2 54072  53.2172 326.7187 0001631  85.6761 274.4417 15.08843428 54739,6917.87,95.437,540.863,538.607,0.0
54072.0,STARLINK-5144,PAYLOAD,2023-10-13 20:22:54,15.08852067,0.0001674,53.2173,324.638,84.5396,275.5787,0.00033036,4.975e-05,0.0,0 STARLINK-5144,1 54072U 22136X   23286.84924240  .00004975  00000-0  33036-3 0  9999,2 54072  53.2173 324.6380 0001674  84.5396 275.5787 15.08852067 54327,6917.844,95.437,540.867,538.55,0.0
54072.0,STARLINK-5144,PAYLOAD,2023-10-14 09:05:59,15.0885483,0.0001993,53.2181,322.2567,100.231,259.8907,0.000265,3.934e-05,0.0,0 STARLINK-5144,1 54072U 22136X   23287.37915844  .00003934  00000-0  26500-3 0  9990,2 54072  53.2181 322.2567 0001993 100.2310 259.8907 15.08854830 54401,6917.835,95.437,541.079,538.321,0.0
54072.0,STARLINK-5144,PAYLOAD,2023-10-15 02:35:14,15.08833255,0.0001911,53.217,318.9872,91.2044,268.9167,-7.3531e-05,-1.458e-05,0.0,0 STARLINK-5144,1 54072U 22136X   23288.10780929 -.00001458  00000-0 -73531-4 0  9994,2 54072  53.2170 318.9872 0001911  91.2044 268.9167 15.08833255 54994,6917.901,95.438,541.088,538.444,0.0
54072.0,STARLINK-5144,PAYLOAD,2023-10-15 08:56:47,15.08826839,0.0001617,53.2167,317.7975,91.8538,268.264,-0.00012078,-2.209e-05,0.0,0 STARLINK-5144,1 54072U 22136X   23288.37277505 -.00002209  00000-0 -12078-3 0  9997,2 54072  53.2167 317.7975 0001617  91.8538 268.2640 15.08826839 55033,6917.921,95.438,540.904,538.667,0.0
54072.0,STARLINK-5144,PAYLOAD,2023-10-15 18:29:06,15.08834824,0.0001603,53.2174,316.0131,92.6148,267.5028,2.2985e-05,7.8e-07,0.0,0 STARLINK-5144,1 54072U 22136X   23288.77021346  .00000078  00000-0  22985-4 0  9990,2 54072  53.2174 316.0131 0001603  92.6148 267.5028 15.08834824 55099,6917.896,95.438,540.87,538.652,0.0
54072.0,STARLINK-5144,PAYLOAD,2023-10-16 08:47:34,15.08855363,0.0001477,53.2164,313.3372,90.1023,270.0138,0.00069511,0.00010797,0.0,0 STARLINK-5144,1 54072U 22136X   23289.36636955  .00010797  00000-0  69511-3 0  9998,2 54072  53.2164 313.3372 0001477  90.1023 270.0138 15.08855363 55181,6917.833,95.437,540.72,538.677,0.0
54072.0,STARLINK-5144,PAYLOAD,2023-10-17 07:02:58,15.08850758,0.0001665,53.2172,309.1769,100.1516,259.9664,0.00024816,3.665e-05,0.0,0 STARLINK-5144,1 54072U 22136X   23290.29372915  .00003665  00000-0  24816-3 0  9990,2 54072  53.2172 309.1769 0001665 100.1516 259.9664 15.08850758 55320,6917.848,95.437,540.864,538.561,0.0
54072.0,STARLINK-5144,PAYLOAD,2023-10-17 18:10:40,15.08849332,0.0001435,53.2163,307.0934,97.7471,262.3684,0.00038567,5.857e-05,0.0,0 STARLINK-5144,1 54072U 22136X   23290.75740770  .00005857  00000-0  38567-3 0  9992,2 54072  53.2163 307.0934 0001435  97.7471 262.3684 15.08849332 54917,6917.852,95.437,540.71,538.724,0.0
54072.0,STARLINK-5144,PAYLOAD,2023-10-18 10:04:31,15.08839237,0.0001945,53.2162,304.1172,91.515,268.6065,0.0001979,2.863e-05,0.0,0 STARLINK-5144,1 54072U 22136X   23291.41981185  .00002863  00000-0  19790-3 0  9994,2 54072  53.2162 304.1172 0001945  91.5150 268.6065 15.08839237 55499,6917.883,95.438,541.093,538.402,0.0
54072.0,STARLINK-5144,PAYLOAD,2023-10-19 09:55:18,15.08850888,0.0001691,53.2166,299.6569,91.7575,268.3611,0.00033537,5.055e-05,0.0,0 STARLINK-5144,1 54072U 22136X   23292.41340866  .00005055  00000-0  33537-3 0  9991,2 54072  53.2166 299.6569 0001691  91.7575 268.3611 15.08850888 55165,6917.847,95.437,540.882,538.542,0.0
54072.0,STARLINK-5144,PAYLOAD,2023-10-19 17:52:14,15.08841157,0.0001558,53.2175,298.1728,92.3368,267.7802,0.00016136,2.281e-05,0.0,0 STARLINK-5144,1 54072U 22136X   23292.74461189  .00002281  00000-0  16136-3 0  9993,2 54072  53.2175 298.1728 0001558  92.3368 267.7802 15.08841157 55697,6917.877,95.437,540.82,538.664,0.0
54072.0,STARLINK-5144,PAYLOAD,2023-10-20 06:35:19,15.08840646,0.0001795,53.2165,295.7919,99.2276,260.8919,0.0001205,1.63e-05,0.0,0 STARLINK-5144,1 54072U 22136X   23293.27453370  .00001630  00000-0  12050-3 0  9993,2 54072  53.2165 295.7919 0001795  99.2276 260.8919 15.08840646 55299,6917.878,95.438,540.985,538.502,0.0
54072.0,STARLINK-5144,PAYLOAD,2023-10-21 06:26:07,15.08833949,0.0001643,53.2162,291.3321,104.0579,256.0595,2.275e-05,7.4e-07,0.0,0 STARLINK-5144,1 54072U 22136X   23294.26814025  .00000074  00000-0  22750-4 0  9991,2 54072  53.2162 291.3321 0001643 104.0579 256.0595 15.08833949 55923,6917.899,95.438,540.9,538.627,0.0
54072.0,STARLINK-5144,PAYLOAD,2023-10-22 04:41:30,15.0885,0.0001625,53.216,287.1684,99.9335,260.184,0.00037218,5.642e-05,0.0,0 STARLINK-5144,1 54072U 22136X   23295.19549593  .00005642  00000-0  37218-3 0  9999,2 54072  53.2160 287.1684 0001625  99.9335 260.1840 15.08850000 56060,6917.85,95.437,540.839,538.591,0.0
54072.0,STARLINK-5144,PAYLOAD,2023-10-22 09:27:40,15.08858798,0.0001464,53.2154,286.2763,92.6455,267.4705,0.00055791,8.607e-05,0.0,0 STARLINK-5144,1 54072U 22136X   23295.39421305  .00008607  00000-0  55791-3 0  9991,2 54072  53.2154 286.2763 0001464  92.6455 267.4705 15.08858798 55617,6917.823,95.436,540.701,538.675,0.0
54072.0,STARLINK-5144,PAYLOAD,2023-10-23 04:32:18,15.08840357,0.0001466,53.2159,282.7097,89.0772,271.0388,2.9318e-05,1.79e-06,0.0,0 STARLINK-5144,1 54072U 22136X   23296.18909859  .00000179  00000-0  29318-4 0  9997,2 54072  53.2159 282.7097 0001466  89.0772 271.0388 15.08840357 56214,6917.879,95.438,540.758,538.73,0.0
54072.0,STARLINK-5144,PAYLOAD,2023-10-23 06:07:41,15.08840769,0.0001415,53.2163,282.4112,83.4741,276.6412,7.8797e-05,9.66e-06,0.0,0 STARLINK-5144,1 54072U 22136X   23296.25533887  .00000966  00000-0  78797-4 0  9998,2 54072  53.2163 282.4112 0001415  83.4741 276.6412 15.08840769 55745,6917.878,95.438,540.722,538.764,0.0
54072.0,STARLINK-5144,PAYLOAD,2023-10-24 05:58:28,15.0884612,0.0001453,53.2155,277.9508,81.4057,278.71,0.00044531,6.807e-05,0.0,0 STARLINK-5144,1 54072U 22136X   23297.24893989  .00006807  00000-0  44531-3 0  9998,2 54072  53.2155 277.9508 0001453  81.4057 278.7100 15.08846120 56378,6917.862,95.437,540.732,538.722,0.0
